DMSP 5D-3 F16 (USA 172) 
1 28054U 03048A   26040.82653935  .00000151  00000+0  10233-3 0  9995
2 28054  99.0016  63.7412 0007861 142.4249 221.2608 14.14450920151487
METEOSAT-9 (MSG-2)      
1 28912U 05049B   26040.20226558  .00000127  00000+0  00000+0 0  9990
2 28912   9.0713  55.4133 0001120 221.5310 340.8634  1.00281878  5719
DMSP 5D-3 F17 (USA 191) 
1 29522U 06050A   26040.81706022  .00000190  00000+0  12044-3 0  9992
2 29522  98.7407  49.9814 0011030  63.0837 297.1462 14.14951058994409
FENGYUN 3A              
1 32958U 08026A   26040.82316464  .00000132  00000+0  83260-4 0  9997
2 32958  98.6763 344.1273 0009505 129.9442 230.2571 14.19537583917331
GOES 14                 
1 35491U 09033A   26040.73492181  .00000137  00000+0  00000+0 0  9993
2 35491   1.3596  84.7683 0001765 287.5919 246.3140  1.00114409  5313
DMSP 5D-3 F18 (USA 210) 
1 35951U 09057A   26040.84886442  .00000317  00000+0  18764-3 0  9999
2 35951  98.8916  21.9805 0010026 252.0441 107.9640 14.14816808841582
EWS-G2 (GOES 15)        
1 36411U 10008A   26040.77600203  .00000043  00000+0  00000+0 0  9996
2 36411   0.9553  85.6400 0004508 202.5911 192.6103  1.00276371 58360
COMS 1                  
1 36744U 10032A   26040.57519427 -.00000339  00000+0  00000+0 0  9996
2 36744   4.4796  77.2277 0000959 259.3006 138.3646  1.00271757 49819
FENGYUN 3B              
1 37214U 10059A   26040.87635419 -.00000296  00000+0 -12982-3 0  9990
2 37214  98.9823  86.2448 0021921 185.0410 281.5196 14.14808603789421
SUOMI NPP               
1 37849U 11061A   26040.83117745  .00000098  00000+0  67428-4 0  9995
2 37849  98.7836 342.6608 0001524  16.9429 343.1798 14.19535297740378
METEOSAT-10 (MSG-3)     
1 38552U 12035B   26040.76378197 -.00000001  00000+0  00000+0 0  9994
2 38552   4.3692  61.5632 0002321 291.1820  62.0611  1.00273752 49571
METOP-B                 
1 38771U 12049A   26040.78137123  .00000122  00000+0  75913-4 0  9999
2 38771  98.6703  94.7139 0002287  20.3306 339.7962 14.21435058695166
INSAT-3D                
1 39216U 13038B   26040.78945490 -.00000332  00000+0  00000+0 0  9991
2 39216   1.5966  84.2567 0001578 225.5888 243.7239  1.00272438 45805
FENGYUN 3C              
1 39260U 13052A   26040.82986500  .00000152  00000+0  98176-4 0  9993
2 39260  98.4846  20.6485 0015340  33.7752 326.4397 14.15719222640543
METEOR-M 2              
1 40069U 14037A   26040.87854425 -.00000202  00000+0 -73366-4 0  9993
2 40069  98.4986  21.2212 0006781  52.4082 307.7711 14.21415303601230
HIMAWARI-8              
1 40267U 14060A   26040.79170824 -.00000267  00000+0  00000+0 0  9994
2 40267   0.0334 254.2418 0000557  43.5927 267.6957  1.00273706 41489
FENGYUN 2G              
1 40367U 14090A   26040.64080130 -.00000293  00000+0  00000+0 0  9991
2 40367   5.3159  74.3801 0001280 200.8447 194.4397  1.00262232 40722
METEOSAT-11 (MSG-4)     
1 40732U 15034A   26040.76568865  .00000070  00000+0  00000+0 0  9997
2 40732   2.8808  71.8139 0001193 244.0647 109.2117  1.00269095  5934
ELEKTRO-L 2             
1 41105U 15074A   26040.83226845 -.00000112  00000+0  00000+0 0  9991
2 41105   6.3734  72.1048 0003410 232.9699 119.9621  1.00272505 37221
INSAT-3DR               
1 41752U 16054A   26040.42188010 -.00000069  00000+0  00000+0 0  9995
2 41752   0.0620  93.2903 0013559 185.7269  86.3430  1.00271861 34531
HIMAWARI-9              
1 41836U 16064A   26040.79170824 -.00000267  00000+0  00000+0 0  9993
2 41836   0.0167 124.2265 0001122 237.1933 204.1913  1.00270383 33936
GOES 16                 
1 41866U 16071A   26040.67174147 -.00000083  00000+0  00000+0 0  9999
2 41866   0.1478  93.7339 0002657 203.2114 339.9178  1.00272254 33823
FENGYUN 4A              
1 41882U 16077A   26040.21777900 -.00000350  00000+0  00000+0 0  9996
2 41882   1.9969  81.7582 0006156 131.4112 128.2662  1.00275030 33642
CYGFM05                 
1 41884U 16078A   26040.32272538  .00025849  00000+0  43475-3 0  9994
2 41884  34.9599  23.6474 0006662 359.2069   0.8642 15.50727678508850
CYGFM04                 
1 41885U 16078B   26040.30031993  .00029662  00000+0  44970-3 0  9999
2 41885  34.9350 356.7974 0005075  29.3440 330.7568 15.53593822509045
CYGFM02                 
1 41886U 16078C   26040.30247991  .00033103  00000+0  46734-3 0  9992
2 41886  34.9436 354.2329 0006237  32.7763 327.3347 15.55511008509185
CYGFM01                 
1 41887U 16078D   26040.35759031  .00026401  00000+0  43768-3 0  9998
2 41887  34.9428  25.3591 0006769 350.3053   9.7538 15.51125890508802
CYGFM08                 
1 41888U 16078E   26040.29991900  .00029234  00000+0  46048-3 0  9996
2 41888  34.9460   7.9938 0007398  19.7433 340.3576 15.52528085509033
CYGFM07                 
1 41890U 16078G   26040.27881519  .00029269  00000+0  45043-3 0  9993
2 41890  34.9476 356.7653 0005359  38.4047 321.7057 15.53183901509050
CYGFM03                 
1 41891U 16078H   26040.31255578  .00029048  00000+0  44906-3 0  9991
2 41891  34.9432 358.5046 0005229  17.8759 342.2147 15.53060839509036
FENGYUN 3D              
1 43010U 17072A   26040.86851654 -.00000225  00000+0 -84581-4 0  9990
2 43010  98.9986  13.0919 0002469  63.4920 296.6508 14.19705437426927
NOAA 20 (JPSS-1)        
1 43013U 17073A   26040.77521454  .00000103  00000+0  69845-4 0  9995
2 43013  98.7660 341.4455 0000217  13.9825 346.1357 14.19528590426390
GOES 17                 
1 43226U 18022A   26040.60344775 -.00000175  00000+0  00000+0 0  9990
2 43226   0.6087  88.1036 0002381 210.5813 328.6960  1.00274745 29140
FENGYUN 2H              
1 43491U 18050A   26040.85072855 -.00000119  00000+0  00000+0 0  9997
2 43491   2.7025  80.6581 0001864 170.0717 274.3659  1.00275030 28160
METOP-C                 
1 43689U 18087A   26040.80692228  .00000124  00000+0  76457-4 0  9992
2 43689  98.6828 102.6438 0001755 139.0326 221.0983 14.21511064376735
GEO-KOMPSAT-2A          
1 43823U 18100A   26040.50395388 -.00000336  00000+0  00000+0 0  9994
2 43823   0.0175  92.9434 0001099 315.1419  41.1655  1.00272885 26349
METEOR-M2 2             
1 44387U 19038A   26040.81634479 -.00000157  00000+0 -48116-4 0  9999
2 44387  98.9052  26.2924 0002075  50.1786 309.9575 14.24321178343165
ARKTIKA-M 1             
1 47719U 21016A   26035.90384421 -.00000136  00000+0  00000+0 0  9994
2 47719  63.1930  76.4940 7230705 269.3476  15.2984  2.00623094 36131
FENGYUN 3E              
1 49008U 21062A   26040.86737450 -.00000280  00000+0 -11110-3 0  9992
2 49008  98.7507  45.6959 0002692  89.7587 270.3898 14.19888384238510
GOES 18                 
1 51850U 22021A   26040.73665515  .00000105  00000+0  00000+0 0  9990
2 51850   0.0160  89.3121 0000700 295.5458 243.1407  1.00271129  5310
NOAA 21 (JPSS-2)        
1 54234U 22150A   26040.81022739  .00000112  00000+0  73806-4 0  9993
2 54234  98.7522 341.4011 0001563 161.3255 198.7979 14.19544616168472
METEOSAT-12 (MTG-I1)    
1 54743U 22170C   26040.76369530  .00000000  00000+0  00000+0 0  9994
2 54743   0.7154  25.6513 0001870 276.8454 111.9070  1.00271453 11707
TIANMU-1 03             
1 55973U 23039A   26040.81052956  .00018707  00000+0  42411-3 0  9991
2 55973  97.5146 210.2155 0002996 187.0846 173.0359 15.43131873161168
TIANMU-1 04             
1 55974U 23039B   26040.84116917  .00018598  00000+0  41621-3 0  9993
2 55974  97.5077 209.4160 0003719 184.4740 175.6475 15.43516814161176
TIANMU-1 05             
1 55975U 23039C   26040.85091339  .00017774  00000+0  40382-3 0  9993
2 55975  97.5125 209.9188 0002563 210.7317 149.3780 15.43078715161153
TIANMU-1 06             
1 55976U 23039D   26040.84155792  .00018314  00000+0  40945-3 0  9993
2 55976  97.5135 210.4245 0002926 205.0155 155.0951 15.43553042161173
FENGYUN 3G              
1 56232U 23055A   26040.84897966  .00029002  00000+0  46462-3 0  9999
2 56232  49.9935 282.6541 0010128 251.9122 108.0743 15.52760062160218
METEOR-M2 3             
1 57166U 23091A   26040.85299756  .00000006  00000+0  21302-4 0  9990
2 57166  98.6281  98.3333 0004185 165.7520 194.3778 14.24034644136397
TIANMU-1 07             
1 57399U 23101A   26040.83900512  .00007892  00000+0  28173-3 0  9999
2 57399  97.2786  94.3981 0003038 203.9122 156.1978 15.29123371142188
TIANMU-1 08             
1 57400U 23101B   26040.87424292  .00007508  00000+0  26902-3 0  9994
2 57400  97.2774  94.2150 0004718 213.6053 146.4889 15.29012810142180
TIANMU-1 09             
1 57401U 23101C   26040.85722013  .00007574  00000+0  27015-3 0  9994
2 57401  97.2733  93.6867 0004025 214.8509 145.2468 15.29162658142180
TIANMU-1 10             
1 57402U 23101D   26040.89168685  .00008542  00000+0  30427-3 0  9995
2 57402  97.2812  94.6329 0005684 219.9237 140.1586 15.29157979142184
FENGYUN 3F              
1 57490U 23111A   26040.85374738  .00000070  00000+0  53340-4 0  9995
2 57490  98.6987 113.1676 0001492  96.9588 263.1758 14.19912645130794
ARKTIKA-M 2             
1 58584U 23198A   26039.65195104  .00000164  00000+0  00000+0 0  9993
2 58584  63.2223 168.5783 6872570 267.8705  18.8421  2.00612891 15748
TIANMU-1 11             
1 58645U 23205A   26040.86607799  .00007025  00000+0  27981-3 0  9997
2 58645  97.3577  64.4742 0011025  94.2777 265.9721 15.25487988118100
TIANMU-1 12             
1 58646U 23205B   26040.83143918  .00006778  00000+0  27091-3 0  9999
2 58646  97.3565  64.2267 0009266  80.7863 279.4423 15.25399370118081
TIANMU-1 13             
1 58647U 23205C   26040.86323361  .00007342  00000+0  29277-3 0  9991
2 58647  97.3592  64.4846 0009298  65.6918 294.5290 15.25447730118089
TIANMU-1 14             
1 58648U 23205D   26040.84739098  .00006855  00000+0  27365-3 0  9992
2 58648  97.3527  63.7632 0010187  68.7021 291.5303 15.25425626118083
TIANMU-1 19             
1 58660U 23208A   26040.85994487  .00011054  00000+0  39216-3 0  9990
2 58660  97.4371 156.8341 0005965  56.4689 303.7120 15.29221551117850
TIANMU-1 20             
1 58661U 23208B   26040.86588869  .00011018  00000+0  37670-3 0  9997
2 58661  97.4310 157.3460 0008282  62.2814 297.9266 15.30413145117930
TIANMU-1 21             
1 58662U 23208C   26040.83465362  .00012362  00000+0  39800-3 0  9997
2 58662  97.4361 159.4862 0007998  57.5593 302.6421 15.32325828118042
TIANMU-1 22             
1 58663U 23208D   26040.87101894  .00010161  00000+0  36456-3 0  9998
2 58663  97.4367 156.8735 0004954  78.3199 281.8596 15.28880170117862
TIANMU-1 15             
1 58700U 24004A   26040.84500360  .00007260  00000+0  29004-3 0  9990
2 58700  97.4656 227.1314 0008394  79.1996 281.0186 15.25404795116358
TIANMU-1 16             
1 58701U 24004B   26040.82906110  .00007129  00000+0  28468-3 0  9999
2 58701  97.4596 226.4590 0006814  82.0808 278.1203 15.25434772116355
TIANMU-1 17             
1 58702U 24004C   26040.87766260  .00007526  00000+0  30006-3 0  9997
2 58702  97.4629 226.9476 0006006  82.9439 277.2482 15.25473726116354
TIANMU-1 18             
1 58703U 24004D   26040.86198622  .00007638  00000+0  30488-3 0  9996
2 58703  97.4647 227.1388 0005410  82.3248 277.8604 15.25433385116359
INSAT-3DS               
1 58990U 24033A   26040.77683609 -.00000147  00000+0  00000+0 0  9992
2 58990   0.0030 129.9589 0001837 217.9645 153.6181  1.00271250 45790
METEOR-M2 4             
1 59051U 24039A   26040.86374042  .00000040  00000+0  37482-4 0  9995
2 59051  98.6855   1.8724 0007104 169.6297 190.5029 14.22412685101167
GOES 19                 
1 60133U 24119A   26040.53498072 -.00000240  00000+0  00000+0 0  9995
2 60133   0.0255 303.2974 0001083  65.2562 248.4511  1.00272350  5687
FENGYUN 3H              
1 65815U 25219A   26040.77976353  .00000107  00000+0  70958-4 0  9993
2 65815  98.6650 344.1092 0001605  83.6275 276.5085 14.19924999 19300
